{
    "links": {
        "self": "http://www.neowsapp.com/rest/v1/neo/3836890?api_key=iIulBulltgU6a56xZRHN4H3l9WmuAYTsLGpBGhQ2"
    },
    "id": "3836890",
    "neo_reference_id": "3836890",
    "name": "(2018 XE4)",
    "designation": "2018 XE4",
    "nasa_jpl_url": "http://ssd.jpl.nasa.gov/sbdb.cgi?sstr=3836890",
    "absolute_magnitude_h": 26.4,
    "estimated_diameter": {
        "kilometers": {
            "estimated_diameter_min": 0.0139493823,
            "estimated_diameter_max": 0.0311917671
        },
        "meters": {
            "estimated_diameter_min": 13.9493822934,
            "estimated_diameter_max": 31.1917670523
        },
        "miles": {
            "estimated_diameter_min": 0.0086677416,
            "estimated_diameter_max": 0.0193816595
        },
        "feet": {
            "estimated_diameter_min": 45.7656914036,
            "estimated_diameter_max": 102.3351970157
        }
    },
    "is_potentially_hazardous_asteroid": false,
    "close_approach_data": [
        {
            "close_approach_date": "2014-12-14",
            "close_approach_date_full": "2014-Dec-14 21:25",
            "epoch_date_close_approach": 1418592300000,
            "relative_velocity": {
                "kilometers_per_second": "13.0424987415",
                "kilometers_per_hour": "46952.9954693626",
                "miles_per_hour": "29174.7654348381"
            },
            "miss_distance": {
                "astronomical": "0.1054932955",
                "lunar": "41.0368919495",
                "kilometers": "15781572.306080585",
                "miles": "9806214.310798673"
            },
            "orbiting_body": "Earth"
        },
        {
            "close_approach_date": "2018-12-26",
            "close_approach_date_full": "2018-Dec-26 17:31",
            "epoch_date_close_approach": 1545845460000,
            "relative_velocity": {
                "kilometers_per_second": "9.5062193173",
                "kilometers_per_hour": "34222.3895421738",
                "miles_per_hour": "21264.4619908024"
            },
            "miss_distance": {
                "astronomical": "0.0136451505",
                "lunar": "5.3079635445",
                "kilometers": "2041285.450629435",
                "miles": "1268395.962718803"
            },
            "orbiting_body": "Earth"
        }
    ],
    "orbital_data": {
        "orbit_id": "2",
        "orbit_determination_date": "2019-07-10 05:36:24",
        "first_observation_date": "2018-12-12",
        "last_observation_date": "2018-12-14",
        "data_arc_in_days": 2,
        "observations_used": 11,
        "orbit_uncertainty": "8",
        "minimum_orbit_intersection": ".00793712",
        "jupiter_tisserand_invariant": "4.260",
        "epoch_osculation": "2458465.5",
        "eccentricity": ".4471822761890016",
        "semi_major_axis": "1.590170783040666",
        "inclination": "3.062623920606645",
        "ascending_node_longitude": "264.4756852261819",
        "orbital_period": "732.4265543848602",
        "perihelion_distance": ".879074592751294",
        "perihelion_argument": "237.8672519774184",
        "aphelion_distance": "2.301266973330038",
        "perihelion_time": "2458515.417064611748",
        "mean_anomaly": "335.4649211546927",
        "mean_motion": ".491516859738041",
        "equinox": "J2000",
        "orbit_class": {
            "orbit_class_type": "APO",
            "orbit_class_description": "Near-Earth asteroid orbits which cross the Earth’s orbit similar to that of 1862 Apollo",
            "orbit_class_range": "a (semi-major axis) > 1.0 AU; q (perihelion) < 1.017 AU"
        }
    },
    "is_sentry_object": false
}